start=new Date('2021-11-08T00:00:00.000Z').valueOf();
sats=[{"PERIAPSIS":"546.078","COUNTRY_CODE":"US","MEAN_MOTION":"15.06394200","TLE_LINE2":"2 47803  53.0559 137.2141 0001665  87.3773 272.7406 15.06394200 38305","INCLINATION":"53.0559","FILE":"3207836","OBJECT_NAME":"STARLINK-2384","RA_OF_ASC_NODE":"137.2141","NORAD_CAT_ID":"47803","ELEMENT_SET_NO":"999","GP_ID":"189215188","TIME_SYSTEM":"UTC","OBJECT_TYPE":"PAYLOAD","MEAN_ANOMALY":"272.7406","APOAPSIS":"548.384","EPOCH":"2021-11-07T20:39:33.380064","BSTAR":"-0.00005097900000","MEAN_MOTION_DDOT":"0.0000000000000","CENTER_NAME":"EARTH","OBJECT_ID":"2021-018S","MEAN_MOTION_DOT":"-0.00001041","RCS_SIZE":"LARGE","REV_AT_EPOCH":"3830","PERIOD":"95.593","CLASSIFICATION_TYPE":"U","REF_FRAME":"TEME","ARG_OF_PERICENTER":"87.3773","EPHEMERIS_TYPE":"0","LAUNCH_DATE":"2021-03-11","MEAN_ELEMENT_THEORY":"SGP4","SEMIMAJOR_AXIS":"6925.366","DECAY_DATE":null,"SITE":"AFETR","TLE_LINE1":"1 47803U 21018S   21311.86080301 -.00001041  00000-0 -50979-4 0  9990","ECCENTRICITY":"0.00016650"},{"SITE":"AFETR","TLE_LINE1":"1 47804U 21018T   21311.87553285 -.00000984  00000-0 -47163-4 0  9994","ECCENTRICITY":"0.00018280","CLASSIFICATION_TYPE":"U","REF_FRAME":"TEME","EPHEMERIS_TYPE":"0","ARG_OF_PERICENTER":"85.1815","LAUNCH_DATE":"2021-03-11","MEAN_ELEMENT_THEORY":"SGP4","SEMIMAJOR_AXIS":"6925.361","DECAY_DATE":null,"OBJECT_TYPE":"PAYLOAD","APOAPSIS":"548.492","MEAN_ANOMALY":"274.9383","EPOCH":"2021-11-07T21:00:46.038240","BSTAR":"-0.00004716300000","CENTER_NAME":"EARTH","MEAN_MOTION_DDOT":"0.0000000000000","OBJECT_ID":"2021-018T","RCS_SIZE":"LARGE","MEAN_MOTION_DOT":"-0.00000984","REV_AT_EPOCH":"3830","PERIOD":"95.592","PERIAPSIS":"545.960","MEAN_MOTION":"15.06395991","COUNTRY_CODE":"US","TLE_LINE2":"2 47804  53.0554 137.1376 0001828  85.1815 274.9383 15.06395991 38300","FILE":"3207836","OBJECT_NAME":"STARLINK-2385","INCLINATION":"53.0554","NORAD_CAT_ID":"47804","RA_OF_ASC_NODE":"137.1376","TIME_SYSTEM":"UTC","ELEMENT_SET_NO":"999","GP_ID":"189215438"},{"MEAN_ANOMALY":"272.7427","OBJECT_TYPE":"PAYLOAD","APOAPSIS":"548.465","MEAN_MOTION_DDOT":"0.0000000000000","CENTER_NAME":"EARTH","BSTAR":"-0.00015733000000","EPOCH":"2021-11-07T21:15:21.853440","MEAN_MOTION_DOT":"-0.00002623","RCS_SIZE":"MEDIUM","OBJECT_ID":"2021-018U","PERIOD":"95.594","REV_AT_EPOCH":"3831","COUNTRY_CODE":"US","MEAN_MOTION":"15.06374768","PERIAPSIS":"546.116","TLE_LINE2":"2 47805  53.0545 137.0890 0001696  87.3756 272.7427 15.06374768 38317","INCLINATION":"53.0545","FILE":"3207836","OBJECT_NAME":"STARLINK-2386","GP_ID":"189216189","ELEMENT_SET_NO":"999","TIME_SYSTEM":"UTC","RA_OF_ASC_NODE":"137.0890","NORAD_CAT_ID":"47805","SITE":"AFETR","TLE_LINE1":"1 47805U 21018U   21311.88566960 -.00002623  00000-0 -15733-3 0  9999","ECCENTRICITY":"0.00016960","REF_FRAME":"TEME","CLASSIFICATION_TYPE":"U","LAUNCH_DATE":"2021-03-11","ARG_OF_PERICENTER":"87.3756","EPHEMERIS_TYPE":"0","MEAN_ELEMENT_THEORY":"SGP4","DECAY_DATE":null,"SEMIMAJOR_AXIS":"6925.426"},{"OBJECT_TYPE":"PAYLOAD","MEAN_ANOMALY":"280.1863","APOAPSIS":"548.371","EPOCH":"2021-11-07T20:17:37.703328","BSTAR":"0.00021404000000","MEAN_MOTION_DDOT":"0.0000000000000","CENTER_NAME":"EARTH","OBJECT_ID":"2021-018V","MEAN_MOTION_DOT":"0.00002907","RCS_SIZE":"LARGE","REV_AT_EPOCH":"3815","PERIOD":"95.593","PERIAPSIS":"546.103","COUNTRY_CODE":"US","MEAN_MOTION":"15.06392339","TLE_LINE2":"2 47806  53.0541 152.2869 0001638  79.9311 280.1863 15.06392339 38152","INCLINATION":"53.0541","OBJECT_NAME":"STARLINK-2387","FILE":"3207836","RA_OF_ASC_NODE":"152.2869","NORAD_CAT_ID":"47806","GP_ID":"189216434","ELEMENT_SET_NO":"999","TIME_SYSTEM":"UTC","SITE":"AFETR","TLE_LINE1":"1 47806U 21018V   21311.84557527  .00002907  00000-0  21404-3 0  9990","ECCENTRICITY":"0.00016380","CLASSIFICATION_TYPE":"U","REF_FRAME":"TEME","EPHEMERIS_TYPE":"0","ARG_OF_PERICENTER":"79.9311","LAUNCH_DATE":"2021-03-11","MEAN_ELEMENT_THEORY":"SGP4","SEMIMAJOR_AXIS":"6925.372","DECAY_DATE":null},{"ECCENTRICITY":"0.00019140","TLE_LINE1":"1 47807U 21018W   21311.90226255  .00000388  00000-0  44926-4 0  9995","SITE":"AFETR","DECAY_DATE":null,"SEMIMAJOR_AXIS":"6925.356","MEAN_ELEMENT_THEORY":"SGP4","LAUNCH_DATE":"2021-03-11","ARG_OF_PERICENTER":"82.8547","EPHEMERIS_TYPE":"0","REF_FRAME":"TEME","CLASSIFICATION_TYPE":"U","PERIOD":"95.592","REV_AT_EPOCH":"3844","RCS_SIZE":"LARGE","MEAN_MOTION_DOT":"0.00000388","OBJECT_ID":"2021-018W","CENTER_NAME":"EARTH","MEAN_MOTION_DDOT":"0.0000000000000","EPOCH":"2021-11-07T21:39:15.484320","BSTAR":"0.00004492600000","OBJECT_TYPE":"PAYLOAD","MEAN_ANOMALY":"277.2659","APOAPSIS":"548.547","TIME_SYSTEM":"UTC","GP_ID":"189215689","ELEMENT_SET_NO":"999","NORAD_CAT_ID":"47807","RA_OF_ASC_NODE":"127.0411","OBJECT_NAME":"STARLINK-2388","FILE":"3207836","INCLINATION":"53.0498","TLE_LINE2":"2 47807  53.0498 127.0411 0001914  82.8547 277.2659 15.06397489 38441","MEAN_MOTION":"15.06397489","COUNTRY_CODE":"US","PERIAPSIS":"545.896"},{"RA_OF_ASC_NODE":"152.1952","NORAD_CAT_ID":"47808","GP_ID":"189215939","ELEMENT_SET_NO":"999","TIME_SYSTEM":"UTC","INCLINATION":"53.0537","OBJECT_NAME":"STARLINK-2389","FILE":"3207836","TLE_LINE2":"2 47808  53.0537 152.1952 0001307  78.4656 281.6479 15.06388463 38152","PERIAPSIS":"546.344","COUNTRY_CODE":"US","MEAN_MOTION":"15.06388463","REV_AT_EPOCH":"3815","PERIOD":"95.593","OBJECT_ID":"2021-018X","MEAN_MOTION_DOT":"-0.00001927","RCS_SIZE":"LARGE","BSTAR":"-0.00011053000000","EPOCH":"2021-11-07T20:44:10.664448","MEAN_MOTION_DDOT":"0.0000000000000","CENTER_NAME":"EARTH","OBJECT_TYPE":"PAYLOAD","MEAN_ANOMALY":"281.6479","APOAPSIS":"548.154","SEMIMAJOR_AXIS":"6925.384","DECAY_DATE":null,"MEAN_ELEMENT_THEORY":"SGP4","EPHEMERIS_TYPE":"0","ARG_OF_PERICENTER":"78.4656","LAUNCH_DATE":"2021-03-11","CLASSIFICATION_TYPE":"U","REF_FRAME":"TEME","ECCENTRICITY":"0.00013070","TLE_LINE1":"1 47808U 21018X   21311.86401232 -.00001927  00000-0 -11053-3 0  9997","SITE":"AFETR"},{"ARG_OF_PERICENTER":"72.7284","EPHEMERIS_TYPE":"0","LAUNCH_DATE":"2021-03-11","CLASSIFICATION_TYPE":"U","REF_FRAME":"TEME","SEMIMAJOR_AXIS":"6925.405","DECAY_DATE":null,"MEAN_ELEMENT_THEORY":"SGP4","TLE_LINE1":"1 47809U 21018Y   21311.87002724 -.00001493  00000-0 -81369-4 0  9998","SITE":"AFETR","ECCENTRICITY":"0.00015660","TLE_LINE2":"2 47809  53.0544 157.1615 0001566  72.7284 287.3877 15.06381618 38085","PERIAPSIS":"546.185","COUNTRY_CODE":"US","MEAN_MOTION":"15.06381618","RA_OF_ASC_NODE":"157.1615","NORAD_CAT_ID":"47809","GP_ID":"189216690","ELEMENT_SET_NO":"999","TIME_SYSTEM":"UTC","INCLINATION":"53.0544","OBJECT_NAME":"STARLINK-2390","FILE":"3207836","BSTAR":"-0.00008136900000","EPOCH":"2021-11-07T20:52:50.353536","MEAN_MOTION_DDOT":"0.0000000000000","CENTER_NAME":"EARTH","OBJECT_TYPE":"PAYLOAD","MEAN_ANOMALY":"287.3877","APOAPSIS":"548.354","REV_AT_EPOCH":"3808","PERIOD":"95.593","OBJECT_ID":"2021-018Y","MEAN_MOTION_DOT":"-0.00001493","RCS_SIZE":"LARGE"},{"INCLINATION":"53.0539","OBJECT_NAME":"STARLINK-2391","FILE":"3207836","RA_OF_ASC_NODE":"167.0681","NORAD_CAT_ID":"47810","ELEMENT_SET_NO":"999","GP_ID":"189216935","TIME_SYSTEM":"UTC","PERIAPSIS":"546.210","COUNTRY_CODE":"US","MEAN_MOTION":"15.06402681","TLE_LINE2":"2 47810  53.0539 167.0681 0001437  72.4694 287.6452 15.06402681 37943","OBJECT_ID":"2021-018Z","MEAN_MOTION_DOT":"0.00000390","RCS_SIZE":"LARGE","REV_AT_EPOCH":"3794","PERIOD":"95.592","MEAN_ANOMALY":"287.6452","OBJECT_TYPE":"PAYLOAD","APOAPSIS":"548.201","BSTAR":"0.00004510600000","EPOCH":"2021-11-07T21:28:39.357408","CENTER_NAME":"EARTH","MEAN_MOTION_DDOT":"0.0000000000000","MEAN_ELEMENT_THEORY":"SGP4","SEMIMAJOR_AXIS":"6925.340","DECAY_DATE":null,"CLASSIFICATION_TYPE":"U","REF_FRAME":"TEME","ARG_OF_PERICENTER":"72.4694","EPHEMERIS_TYPE":"0","LAUNCH_DATE":"2021-03-11","ECCENTRICITY":"0.00014370","SITE":"AFETR","TLE_LINE1":"1 47810U 21018Z   21311.89489997  .00000390  00000-0  45106-4 0  9995"},{"ARG_OF_PERICENTER":"88.3721","EPHEMERIS_TYPE":"0","LAUNCH_DATE":"2021-03-11","CLASSIFICATION_TYPE":"U","REF_FRAME":"TEME","SEMIMAJOR_AXIS":"6925.368","DECAY_DATE":null,"MEAN_ELEMENT_THEORY":"SGP4","TLE_LINE1":"1 47811U 21018AA  21311.86817376 -.00001114  00000-0 -55939-4 0  9991","SITE":"AFETR","ECCENTRICITY":"0.00015360","TLE_LINE2":"2 47811  53.0554 137.1733 0001536  88.3721 271.7444 15.06393709 38366","PERIAPSIS":"546.169","COUNTRY_CODE":"US","MEAN_MOTION":"15.06393709","RA_OF_ASC_NODE":"137.1733","NORAD_CAT_ID":"47811","GP_ID":"189215189","ELEMENT_SET_NO":"999","TIME_SYSTEM":"UTC","INCLINATION":"53.0554","FILE":"3207836","OBJECT_NAME":"STARLINK-2392","EPOCH":"2021-11-07T20:50:10.212864","BSTAR":"-0.00005593900000","MEAN_MOTION_DDOT":"0.0000000000000","CENTER_NAME":"EARTH","APOAPSIS":"548.297","OBJECT_TYPE":"PAYLOAD","MEAN_ANOMALY":"271.7444","REV_AT_EPOCH":"3836","PERIOD":"95.593","OBJECT_ID":"2021-018AA","MEAN_MOTION_DOT":"-0.00001114","RCS_SIZE":"LARGE"},{"OBJECT_TYPE":"PAYLOAD","MEAN_ANOMALY":"289.8002","APOAPSIS":"548.432","EPOCH":"2021-11-07T21:44:34.143936","BSTAR":"0.00002796600000","CENTER_NAME":"EARTH","MEAN_MOTION_DDOT":"0.0000000000000","OBJECT_ID":"2021-018AB","RCS_SIZE":"LARGE","MEAN_MOTION_DOT":"0.00000135","REV_AT_EPOCH":"3788","PERIOD":"95.593","PERIAPSIS":"546.090","MEAN_MOTION":"15.06384558","COUNTRY_CODE":"US","TLE_LINE2":"2 47812  53.0536 166.9974 0001691  70.3169 289.8002 15.06384558 37881","FILE":"3207836","OBJECT_NAME":"STARLINK-2393","INCLINATION":"53.0536","NORAD_CAT_ID":"47812","RA_OF_ASC_NODE":"166.9974","TIME_SYSTEM":"UTC","GP_ID":"189215439","ELEMENT_SET_NO":"999","SITE":"AFETR","TLE_LINE1":"1 47812U 21018AB  21311.90595074  .00000135  00000-0  27966-4 0  9994","ECCENTRICITY":"0.00016910","CLASSIFICATION_TYPE":"U","REF_FRAME":"TEME","EPHEMERIS_TYPE":"0","ARG_OF_PERICENTER":"70.3169","LAUNCH_DATE":"2021-03-11","MEAN_ELEMENT_THEORY":"SGP4","SEMIMAJOR_AXIS":"6925.396","DECAY_DATE":null}];
